ONEWEB-0158             
1 48054U 21025N   25196.80423759 -.00000908  00000+0 -25202-2 0  9993
2 48054  87.8956  27.0381 0001956  93.0172 267.1181 13.13476395209470
ONEWEB-0157             
1 48055U 21025P   25196.82962306  .00000266  00000+0  69419-3 0  9996
2 48055  87.8952  27.0438 0001651  74.7879 285.3432 13.13470693209423
ONEWEB-0162             
1 48056U 21025Q   25196.80578661  .00000097  00000+0  23149-3 0  9994
2 48056  87.8952  27.0467 0001754  87.6038 272.5292 13.13471806209362
ONEWEB-0155             
1 48057U 21025R   25196.81270074  .00000253  00000+0  65742-3 0  9992
2 48057  87.8951  27.0535 0001922  83.3432 276.7916 13.13471678209531
ONEWEB-0149             
1 48058U 21025S   25196.75852472  .00000234  00000+0  60576-3 0  9993
2 48058  87.8953  27.0592 0001601  91.9708 268.1605 13.13470530209336
ONEWEB-0148             
1 48059U 21025T   25196.56893873 -.00001077  00000+0 -29841-2 0  9990
2 48059  87.8956  27.1205 0001120  85.6315 274.4942 13.13462522209428
ONEWEB-0160             
1 48060U 21025U   25196.58586055  .00000222  00000+0  57233-3 0  9991
2 48060  87.8955  27.1143 0002369 106.2996 253.8393 13.13471193209370
ONEWEB-0163             
1 48061U 21025V   25196.57062042 -.00000126  00000+0 -38098-3 0  9999
2 48061  87.8952  27.0981 0001734  78.3659 281.7664 13.13470384209504
